FENGYUN 1C DEB
1 29228U 99025AOL 26100.50000000  .00000271  00000-0  40564-4 0  9990
2 29228  98.8838   0.0000 0002347  72.1988 288.0166 14.1147728512145X
FENGYUN 1C DEB
1 29229U 99025AOM 26100.50000000  .00000284  00000-0  42341-4 0  9990
2 29229  98.8712  36.2345 0003156  85.4321 144.6789 14.1152345623456X
FENGYUN 1C DEB
1 29230U 99025AON 26100.50000000  .00000297  00000-0  44118-4 0  9990
2 29230  98.8592  72.4690 0003965  98.7654   0.3456 14.1156962534567X
FENGYUN 1C DEB
1 29231U 99025AOO 26100.50000000  .00000310  00000-0  45895-4 0  9990
2 29231  98.8472 108.7035 0004774 112.0987 216.0123 14.1161579445678X
FENGYUN 1C DEB
1 29232U 99025AOP 26100.50000000  .00000323  00000-0  47672-4 0  9990
2 29232  98.8352 144.9380 0001583 125.4320  72.6790 14.1166196356789X
FENGYUN 1C DEB
1 29233U 99025AOQ 26100.50000000  .00000336  00000-0  49449-4 0  9990
2 29233  98.8232 180.0000 0002392 138.7653 324.3457 14.1170813267890X
FENGYUN 1C DEB
1 29234U 99025AOR 26100.50000000  .00000349  00000-0  51226-4 0  9990
2 29234  98.8112 216.0000 0003201 152.0986 180.0124 14.1175430178901X
FENGYUN 1C DEB
1 29235U 99025AOS 26100.50000000  .00000362  00000-0  53003-4 0  9990
2 29235  98.7992 252.0000 0004010 165.4319  36.6791 14.1180047089012X
FENGYUN 1C DEB
1 29236U 99025AOT 26100.50000000  .00000375  00000-0  54780-4 0  9990
2 29236  98.7872 288.0000 0004819 178.7652 252.3458 14.1184663999123X
FENGYUN 1C DEB
1 29237U 99025AOU 26100.50000000  .00000388  00000-0  56557-4 0  9990
2 29237  98.7752 324.0000 0001628 192.0985 108.0125 14.1189280909234X
COSMOS 2251 DEB
1 34347U 93036AAA 26100.50000000  .00001234  00000-0  12345-3 0  9990
2 34347  74.0300  15.2345 0100123  45.6789  45.1234 14.1812345612345X
COSMOS 2251 DEB
1 34348U 93036AAB 26100.50000000  .00001345  00000-0  13456-3 0  9990
2 34348  74.0412  51.3456 0098765  78.9012 198.3456 14.1823456723456X
COSMOS 2251 DEB
1 34349U 93036AAC 26100.50000000  .00001456  00000-0  14567-3 0  9990
2 34349  74.0524  87.4567 0097407 112.1235 351.5678 14.1834567834567X
COSMOS 2251 DEB
1 34350U 93036AAD 26100.50000000  .00001567  00000-0  15678-3 0  9990
2 34350  74.0636 123.5678 0096049 145.3458 144.7890 14.1845678945678X
COSMOS 2251 DEB
1 34351U 93036AAE 26100.50000000  .00001678  00000-0  16789-3 0  9990
2 34351  74.0748 159.6789 0094691 178.5681 297.0123 14.1856789056789X
IRIDIUM 33 DEB
1 33779U 97030BAA 26100.50000000  .00000987  00000-0  98765-4 0  9990
2 33779  86.3900  30.1234 0080000  60.4321 300.0987 14.1934567812345X
IRIDIUM 33 DEB
1 33780U 97030BAB 26100.50000000  .00001098  00000-0  10987-3 0  9990
2 33780  86.3912  90.2345 0075000  90.5432 270.1098 14.1945678923456X
IRIDIUM 33 DEB
1 33781U 97030BAC 26100.50000000  .00001209  00000-0  12098-3 0  9990
2 33781  86.3924 150.3456 0070000 120.6543 240.2109 14.1956789034567X
IRIDIUM 33 DEB
1 33782U 97030BAD 26100.50000000  .00001320  00000-0  13209-3 0  9990
2 33782  86.3936 210.4567 0065000 150.7654 210.3210 14.1967890145678X
IRIDIUM 33 DEB
1 33783U 97030BAE 26100.50000000  .00001431  00000-0  14320-3 0  9990
2 33783  86.3948 270.5678 0060000 180.8765 180.4321 14.1978901256789X
